KAZEOSAT 2              
1 40010U 14033A   26172.54108969  .00000113  00000+0  18924-4 0  9998
2 40010  97.5407  11.9225 0007483 313.6499  46.4096 14.85473699649606
HODOYOSHI-4             
1 40011U 14033B   26172.53914405  .00001346  00000+0  15121-3 0  9992
2 40011  97.5457 357.1508 0022176 293.0169  66.8709 14.88136903649459
DEIMOS-2                
1 40013U 14033D   26172.53738174  .00001554  00000+0  15187-3 0  9994
2 40013  97.5819  46.8723 0001408  60.2856 299.8504 14.93736204638372
HODOYOSHI-3             
1 40015U 14033F   26171.41846669  .00000763  00000+0  93914-4 0  9997
2 40015  97.6421 334.3289 0032388 346.5693  13.4657 14.85393755648108
SPOT 7                  
1 40053U 14034A   26172.49638149  .00000684  00000+0  14881-3 0  9998
2 40053  98.0622 234.8775 0001282  95.4962 264.6386 14.60962750637769
SKYSAT-B                
1 40072U 14037D   26171.42007102  .00000964  00000+0  11167-3 0  9998
2 40072  98.3840 130.5693 0004150 267.9415  92.1324 14.88034632646442
WORLDVIEW-3 (WV-3)      
1 40115U 14048A   26171.46899535  .00000601  00000+0  76637-4 0  9993
2 40115  97.8566 246.2566 0000722  21.7214 338.4031 14.85026395642392
GAOFEN-2                
1 40118U 14049A   26172.50067434  .00000583  00000+0  82406-4 0  9998
2 40118  98.0103 236.7043 0006386 210.2228 149.8617 14.80903184639879
YAOGAN-21               
1 40143U 14053A   26172.55485899  .00009004  00000+0  34775-3 0  9997
2 40143  97.1472 212.6033 0009920  81.2546 278.9817 15.26432475655622
YAOGAN-22               
1 40275U 14063A   26171.37983304 -.00000017  00000+0  79445-4 0  9997
2 40275 100.7729 322.7060 0006417 178.2010 181.9125 13.15531032560230
ASNARO                  
1 40298U 14070A   26172.50572003  .00008347  00000+0  39614-3 0  9992
2 40298  97.3443 248.5041 0006050 151.6221 208.5345 15.19488914644661
YAOGAN-24               
1 40310U 14072A   26172.55565856  .00000937  00000+0  14286-3 0  9997
2 40310  98.1500 309.9308 0012589 247.9105 112.0768 14.76228667624363
CBERS 4                 
1 40336U 14079A   26172.49813473  .00000295  00000+0  11719-3 0  9991
2 40336  98.3525 229.1950 0001695  60.3510 299.7845 14.35510713604570
YAOGAN-26               
1 40362U 14088A   26172.53086809  .00017149  00000+0  33512-3 0  9991
2 40362  97.0643 172.6381 0005541  57.7340 302.4447 15.47500088638374
SMAP                    
1 40376U 15003A   26171.43033080  .00000302  00000+0  67443-4 0  9999
2 40376  98.1276 178.4790 0001362  97.1421 262.9936 14.63368901608098
KOMPSAT-3A              
1 40536U 15014A   26172.49154969  .00021220  00000+0  30505-3 0  9996
2 40536  97.6890 164.1689 0056939 158.9789 201.3823 15.54169749622485
SENTINEL-2A             
1 40697U 15028A   26172.48042995  .00000285  00000+0  12533-3 0  9992
2 40697  98.5679 247.2715 0001119  92.5199 267.6112 14.30817044574347
GAOFEN-8                
1 40701U 15030A   26172.55374683  .00017119  00000+0  35100-3 0  9990
2 40701  97.6910   6.1863 0009157 170.7942 189.3476 15.46090047612128
CARBONITE 1 (CBNT-1)    
1 40718U 15032D   26172.49901785  .00000776  00000+0  10020-3 0  9997
2 40718  97.6513 350.3842 0013047 282.3309  77.6445 14.83595427589980
YAOGAN-27               
1 40878U 15040A   26172.51378911 -.00000410  00000+0 -96877-3 0  9996
2 40878 100.1159 158.7092 0007793 199.9680 160.1130 13.16069011518235
GAOFEN-9 01             
1 40894U 15047A   26172.51610501  .00000659  00000+0  87040-4 0  9991
2 40894  97.6278 208.0143 0028657 124.2083 236.1854 14.82890423580836
YAOGAN-28               
1 41026U 15064A   26172.51546970  .00005398  00000+0  20324-3 0  9992
2 41026  97.3080 310.6890 0011032 168.3464 191.8032 15.27465990591342
YAOGAN-29               
1 41038U 15069A   26172.49576502  .00000544  00000+0  73435-4 0  9991
2 41038  98.0024 201.1358 0002382  47.5165 312.6249 14.83088194571268
KENT RIDGE 1            
1 41167U 15077B   26172.41996573  .00003269  00000+0  10298-3 0  9993
2 41167  14.9788 234.5105 0008233 298.0966  61.8524 15.23153232581742
GAOFEN-4                
1 41194U 15083A   26172.55360350 -.00000336  00000+0  00000+0 0  9992
2 41194   0.3702  83.8176 0004198 118.5029  12.4212  1.00272762 38576
JASON-3                 
1 41240U 16002A   26171.42010391 -.00000038  00000+0  96061-4 0  9994
2 41240  66.0406 119.0381 0008478 272.6497  87.3551 12.87628140487661
SENTINEL-3A             
1 41335U 16011A   26171.44253080  .00000048  00000+0  37722-4 0  9994
2 41335  98.6248 238.7795 0001418  99.3701 260.7640 14.26733412538520
ZIYUAN 3-02 (ZY 3-02)   
1 41556U 16033A   26172.53097848  .00003654  00000+0  16656-3 0  9990
2 41556  97.3832 248.2226 0012375 274.4666  85.5156 15.21213451558647
CARTOSAT-2C             
1 41599U 16040A   26172.47353941  .00002592  00000+0  12622-3 0  9996
2 41599  97.4481 232.3930 0010398 117.8659 242.3630 15.19218886554365
SKYSAT-C1               
1 41601U 16040C   26171.34273712  .00007564  00000+0  21549-3 0  9994
2 41601  96.9560 202.8917 0003195  52.2877 307.8658 15.36345796558359
LAPAN-A3                
1 41603U 16040E   26172.49891024  .00002561  00000+0  82247-4 0  9990
2 41603  97.1492 168.5028 0010350  11.1730 348.9740 15.33127454555476
