OBJECT_NAME,OBJECT_ID,EPOCH,MEAN_MOTION,ECCENTRICITY,INCLINATION,RA_OF_ASC_NODE,ARG_OF_PERICENTER,MEAN_ANOMALY,EPHEMERIS_TYPE,CLASSIFICATION_TYPE,NORAD_CAT_ID,ELEMENT_SET_NO,REV_AT_EPOCH,BSTAR,MEAN_MOTION_DOT,MEAN_MOTION_DDOT
KAZEOSAT 2,2014-033A,2026-06-21T12:59:10.149216,14.85473699,.0007483,97.5407,11.9225,313.6499,46.4096,0,U,40010,999,64960,.18924E-4,.113E-5,0
HODOYOSHI-4,2014-033B,2026-06-21T12:56:22.045920,14.88136903,.0022176,97.5457,357.1508,293.0169,66.8709,0,U,40011,999,64945,.15121E-3,.1346E-4,0
DEIMOS-2,2014-033D,2026-06-21T12:53:49.782336,14.93736204,.0001408,97.5819,46.8723,60.2856,299.8504,0,U,40013,999,63837,.15187E-3,.1554E-4,0
HODOYOSHI-3,2014-033F,2026-06-20T10:02:35.522016,14.85393755,.0032388,97.6421,334.3289,346.5693,13.4657,0,U,40015,999,64810,.93914E-4,.763E-5,0
SPOT 7,2014-034A,2026-06-21T11:54:47.360736,14.60962750,.0001282,98.0622,234.8775,95.4962,264.6386,0,U,40053,999,63776,.14881E-3,.684E-5,0
SKYSAT-B,2014-037D,2026-06-20T10:04:54.136128,14.88034632,.000415,98.3840,130.5693,267.9415,92.1324,0,U,40072,999,64644,.11167E-3,.964E-5,0
WORLDVIEW-3 (WV-3),2014-048A,2026-06-20T11:15:21.198240,14.85026395,.0000722,97.8566,246.2566,21.7214,338.4031,0,U,40115,999,64239,.76637E-4,.601E-5,0
GAOFEN-2,2014-049A,2026-06-21T12:00:58.262976,14.80903184,.0006386,98.0103,236.7043,210.2228,149.8617,0,U,40118,999,63987,.82406E-4,.583E-5,0
YAOGAN-21,2014-053A,2026-06-21T13:18:59.816736,15.26432475,.000992,97.1472,212.6033,81.2546,278.9817,0,U,40143,999,65562,.34775E-3,.9004E-4,0
YAOGAN-22,2014-063A,2026-06-20T09:06:57.574656,13.15531032,.0006417,100.7729,322.7060,178.2010,181.9125,0,U,40275,999,56023,.79445E-4,-.17E-6,0
ASNARO,2014-070A,2026-06-21T12:08:14.210592,15.19488914,.000605,97.3443,248.5041,151.6221,208.5345,0,U,40298,999,64466,.39614E-3,.8347E-4,0
YAOGAN-24,2014-072A,2026-06-21T13:20:08.899584,14.76228667,.0012589,98.1500,309.9308,247.9105,112.0768,0,U,40310,999,62436,.14286E-3,.937E-5,0
CBERS 4,2014-079A,2026-06-21T11:57:18.840672,14.35510713,.0001695,98.3525,229.1950,60.3510,299.7845,0,U,40336,999,60457,.11719E-3,.295E-5,0
YAOGAN-26,2014-088A,2026-06-21T12:44:27.002976,15.47500088,.0005541,97.0643,172.6381,57.7340,302.4447,0,U,40362,999,63837,.33512E-3,.17149E-3,0
SMAP,2015-003A,2026-06-20T10:19:40.581120,14.63368901,.0001362,98.1276,178.4790,97.1421,262.9936,0,U,40376,999,60809,.67443E-4,.302E-5,0
KOMPSAT-3A,2015-014A,2026-06-21T11:47:49.893216,15.54169749,.0056939,97.6890,164.1689,158.9789,201.3823,0,U,40536,999,62248,.30505E-3,.2122E-3,0
SENTINEL-2A,2015-028A,2026-06-21T11:31:49.147680,14.30817044,.0001119,98.5679,247.2715,92.5199,267.6112,0,U,40697,999,57434,.12533E-3,.285E-5,0
GAOFEN-8,2015-030A,2026-06-21T13:17:23.726112,15.46090047,.0009157,97.6910,6.1863,170.7942,189.3476,0,U,40701,999,61212,.351E-3,.17119E-3,0
CARBONITE 1 (CBNT-1),2015-032D,2026-06-21T11:58:35.142240,14.83595427,.0013047,97.6513,350.3842,282.3309,77.6445,0,U,40718,999,58998,.1002E-3,.776E-5,0
YAOGAN-27,2015-040A,2026-06-21T12:19:51.379104,13.16069011,.0007793,100.1159,158.7092,199.9680,160.1130,0,U,40878,999,51823,-.96877E-3,-.41E-5,0
GAOFEN-9 01,2015-047A,2026-06-21T12:23:11.472864,14.82890423,.0028657,97.6278,208.0143,124.2083,236.1854,0,U,40894,999,58083,.8704E-4,.659E-5,0
YAOGAN-28,2015-064A,2026-06-21T12:22:16.582080,15.27465990,.0011032,97.3080,310.6890,168.3464,191.8032,0,U,41026,999,59134,.20324E-3,.5398E-4,0
YAOGAN-29,2015-069A,2026-06-21T11:53:54.097728,14.83088194,.0002382,98.0024,201.1358,47.5165,312.6249,0,U,41038,999,57126,.73435E-4,.544E-5,0
KENT RIDGE 1,2015-077B,2026-06-21T10:04:45.039072,15.23153232,.0008233,14.9788,234.5105,298.0966,61.8524,0,U,41167,999,58174,.10298E-3,.3269E-4,0
GAOFEN-4,2015-083A,2026-06-21T13:17:11.342400,1.00272762,.0004198,0.3702,83.8176,118.5029,12.4212,0,U,41194,999,3857,0,-.336E-5,0
JASON-3,2016-002A,2026-06-20T10:04:56.977824,12.87628140,.0008478,66.0406,119.0381,272.6497,87.3551,0,U,41240,999,48766,.96061E-4,-.38E-6,0
SENTINEL-3A,2016-011A,2026-06-20T10:37:14.661120,14.26733412,.0001418,98.6248,238.7795,99.3701,260.7640,0,U,41335,999,53852,.37722E-4,.48E-6,0
ZIYUAN 3-02 (ZY 3-02),2016-033A,2026-06-21T12:44:36.540672,15.21213451,.0012375,97.3832,248.2226,274.4666,85.5156,0,U,41556,999,55864,.16656E-3,.3654E-4,0
CARTOSAT-2C,2016-040A,2026-06-21T11:21:53.805024,15.19218886,.0010398,97.4481,232.3930,117.8659,242.3630,0,U,41599,999,55436,.12622E-3,.2592E-4,0
SKYSAT-C1,2016-040C,2026-06-20T08:13:32.487168,15.36345796,.0003195,96.9560,202.8917,52.2877,307.8658,0,U,41601,999,55835,.21549E-3,.7564E-4,0
LAPAN-A3,2016-040E,2026-06-21T11:58:25.844736,15.33127454,.001035,97.1492,168.5028,11.1730,348.9740,0,U,41603,999,55547,.82247E-4,.2561E-4,0
